COMMENT,ORIGINATOR,NORAD_CAT_ID,OBJECT_NAME,OBJECT_TYPE,CLASSIFICATION_TYPE,INTLDES,EPOCH,EPOCH_MICROSECONDS,MEAN_MOTION,ECCENTRICITY,INCLINATION,RA_OF_ASC_NODE,ARG_OF_PERICENTER,MEAN_ANOMALY,EPHEMERIS_TYPE,ELEMENT_SET_NO,REV_AT_EPOCH,BSTAR,MEAN_MOTION_DOT,MEAN_MOTION_DDOT,FILE,TLE_LINE0,TLE_LINE1,TLE_LINE2,OBJECT_ID,OBJECT_NUMBER,SEMIMAJOR_AXIS,PERIOD,APOGEE,PERIGEE,DECAYED
"GENERATED VIA SPACETRACK.ORG API","18 SPCS","48904","SPACEBEE-111","PAYLOAD","U","21059AB","2022-06-13 03:51:57","685248","15.16592494","0.0011755","97.5575","294.2265","118.1645","242.0777","0","999","5330","0.00053929","0.0001049","0","3493971","0 SPACEBEE-111","1 48904U 21059AB  22164.16108432  .00010490  00000-0  53929-3 0  9997","2 48904  97.5575 294.2265 0011755 118.1645 242.0777 15.16592494 53306","2021-059AB","48904","6894.285","94.950","524.254","508.046","1"
"GENERATED VIA SPACETRACK.ORG API","18 SPCS","48904","SPACEBEE-111","PAYLOAD","U","21059AB","2022-06-13 08:36:59","480064","15.16596478","0.0011765","97.5576","294.4237","117.5277","242.7153","0","999","5333","0.00053231","0.00010355","0","3494620","0 SPACEBEE-111","1 48904U 21059AB  22164.35902176  .00010355  00000-0  53231-3 0  9991","2 48904  97.5576 294.4237 0011765 117.5277 242.7153 15.16596478 53337","2021-059AB","48904","6894.273","94.949","524.249","508.027","1"
"GENERATED VIA SPACETRACK.ORG API","18 SPCS","48904","SPACEBEE-111","PAYLOAD","U","21059AB","2022-06-13 21:17:03","986016","15.16608166","0.0011791","97.5579","294.9496","115.8664","244.3786","0","999","5341","0.00053775","0.00010465","0","3495597","0 SPACEBEE-111","1 48904U 21059AB  22164.88685169  .00010465  00000-0  53775-3 0  9994","2 48904  97.5579 294.9496 0011791 115.8664 244.3786 15.16608166 53419","2021-059AB","48904","6894.238","94.949","524.232","507.974","1"
"GENERATED VIA SPACETRACK.ORG API","18 SPCS","48904","SPACEBEE-111","PAYLOAD","U","21059AB","2022-06-14 08:22:07","679136","15.16618108","0.001179","97.558","295.4097","114.395","245.8514","0","999","5348","0.00054622","0.00010634","0","3495742","0 SPACEBEE-111","1 48904U 21059AB  22165.34869999  .00010634  00000-0  54622-3 0  9991","2 48904  97.5580 295.4097 0011790 114.3950 245.8514 15.16618108 53484","2021-059AB","48904","6894.207","94.948","524.201","507.944","1"
"GENERATED VIA SPACETRACK.ORG API","18 SPCS","48904","SPACEBEE-111","PAYLOAD","U","21059AB","2022-06-14 08:22:07","679136","15.16618108","0.001179","97.558","295.4097","114.395","245.8514","0","999","5348","0.00054622","0.00010634","0","3495970","0 SPACEBEE-111","1 48904U 21059AB  22165.34869999  .00010634  00000-0  54622-3 0  9991","2 48904  97.5580 295.4097 0011790 114.3950 245.8514 15.16618108 53484","2021-059AB","48904","6894.207","94.948","524.201","507.944","1"
"GENERATED VIA SPACETRACK.ORG API","18 SPCS","48904","SPACEBEE-111","PAYLOAD","U","21059AB","2022-06-14 21:02:11","550048","15.16630875","0.001179","97.5582","295.9356","112.7733","247.4747","0","999","5356","0.00058583","0.00011416","0","3496199","0 SPACEBEE-111","1 48904U 21059AB  22165.87652257  .00011416  00000-0  58583-3 0  9995","2 48904  97.5582 295.9356 0011790 112.7733 247.4747 15.16630875 53560","2021-059AB","48904","6894.169","94.947","524.162","507.906","1"
"GENERATED VIA SPACETRACK.ORG API","18 SPCS","48904","SPACEBEE-111","PAYLOAD","U","21059AB","2022-06-15 14:27:16","324128","15.16646149","0.0011765","97.5584","296.6587","110.5952","249.6544","0","999","5367","0.00062216","0.00012134","0","3496794","0 SPACEBEE-111","1 48904U 21059AB  22166.60227227  .00012134  00000-0  62216-3 0  9998","2 48904  97.5584 296.6587 0011765 110.5952 249.6544 15.16646149 53679","2021-059AB","48904","6894.123","94.946","524.098","507.877","1"
"GENERATED VIA SPACETRACK.ORG API","18 SPCS","48904","SPACEBEE-111","PAYLOAD","U","21059AB","2022-06-15 14:27:16","324128","15.16646149","0.0011765","97.5584","296.6587","110.5952","249.6544","0","999","5367","0.00062216","0.00012134","0","3496878","0 SPACEBEE-111","1 48904U 21059AB  22166.60227227  .00012134  00000-0  62216-3 0  9998","2 48904  97.5584 296.6587 0011765 110.5952 249.6544 15.16646149 53679","2021-059AB","48904","6894.123","94.946","524.098","507.877","1"
"GENERATED VIA SPACETRACK.ORG API","18 SPCS","48904","SPACEBEE-111","PAYLOAD","U","21059AB","2022-06-15 20:47:17","869920","15.16654619","0.001175","97.5584","296.9217","109.8017","250.4483","0","999","5371","0.00071264","0.00013915","0","3496999","0 SPACEBEE-111","1 48904U 21059AB  22166.86617905  .00013915  00000-0  71264-3 0  9993","2 48904  97.5584 296.9217 0011750 109.8017 250.4483 15.16654619 53717","2021-059AB","48904","6894.097","94.946","524.062","507.861","1"
"GENERATED VIA SPACETRACK.ORG API","18 SPCS","48904","SPACEBEE-111","PAYLOAD","U","21059AB","2022-06-15 22:22:18","236928","15.16656384","0.0011739","97.5583","296.9874","109.6566","250.5934","0","999","5372","0.00072137","0.00014088","0","3497002","0 SPACEBEE-111","1 48904U 21059AB  22166.93215552  .00014088  00000-0  72137-3 0  9995","2 48904  97.5583 296.9874 0011739 109.6566 250.5934 15.16656384 53723","2021-059AB","48904","6894.091","94.946","524.049","507.864","1"
"GENERATED VIA SPACETRACK.ORG API","18 SPCS","48904","SPACEBEE-111","PAYLOAD","U","21059AB","2022-06-19 08:42:30","36096","15.16734102","0.0011713","97.559","300.4069","98.9522","261.3037","0","999","5424","0.00063418","0.00012401","0","3497010","0 SPACEBEE-111","1 48904U 21059AB  22170.36284764  .00012401  00000-0  63418-3 0  9997","2 48904  97.5590 300.4069 0011713  98.9522 261.3037 15.16734102 54249","2021-059AB","48904","6893.856","94.941","523.796","507.646","1"
"GENERATED VIA SPACETRACK.ORG API","18 SPCS","48904","SPACEBEE-111","PAYLOAD","U","21059AB","2022-06-19 19:47:30","427008","15.16742861","0.0011742","97.559","300.8673","97.4988","262.7579","0","999","5431","0.00055306","0.00010807","0","3497669","0 SPACEBEE-111","1 48904U 21059AB  22170.82465772  .00010807  00000-0  55306-3 0  9993","2 48904  97.5590 300.8673 0011742  97.4988 262.7579 15.16742861 54311","2021-059AB","48904","6893.829","94.940","523.789","507.600","1"
"GENERATED VIA SPACETRACK.ORG API","18 SPCS","48904","SPACEBEE-111","PAYLOAD","U","21059AB","2022-06-20 08:27:30","549024","15.16752915","0.001174","97.559","301.3935","95.8933","264.3639","0","999","5439","0.00047451","0.00009263","0","3498071","0 SPACEBEE-111","1 48904U 21059AB  22171.35243691  .00009263  00000-0  47451-3 0  9992","2 48904  97.5590 301.3935 0011740  95.8933 264.3639 15.16752915 54392","2021-059AB","48904","6893.799","94.940","523.757","507.571","1"
"GENERATED VIA SPACETRACK.ORG API","18 SPCS","48904","SPACEBEE-111","PAYLOAD","U","21059AB","2022-06-20 19:32:30","358464","15.16764101","0.0011737","97.5587","301.8539","94.4703","265.7871","0","999","5446","0.00053434","0.00010444","0","3498404","0 SPACEBEE-111","1 48904U 21059AB  22171.81424026  .00010444  00000-0  53434-3 0  9997","2 48904  97.5587 301.8539 0011737  94.4703 265.7871 15.16764101 54460","2021-059AB","48904","6893.765","94.939","523.721","507.539","1"
"GENERATED VIA SPACETRACK.ORG API","18 SPCS","48904","SPACEBEE-111","PAYLOAD","U","21059AB","2022-06-20 19:32:30","358464","15.16764101","0.0011737","97.5587","301.8539","94.4703","265.7871","0","999","5446","0.00053434","0.00010444","0","3498514","0 SPACEBEE-111","1 48904U 21059AB  22171.81424026  .00010444  00000-0  53434-3 0  9997","2 48904  97.5587 301.8539 0011737  94.4703 265.7871 15.16764101 54460","2021-059AB","48904","6893.765","94.939","523.721","507.539","1"
"GENERATED VIA SPACETRACK.ORG API","18 SPCS","48904","SPACEBEE-111","PAYLOAD","U","21059AB","2022-06-21 06:37:29","915616","15.16773459","0.0011728","97.5586","302.3143","93.049","267.2085","0","999","5453","0.0005066","0.00009901","0","3498878","0 SPACEBEE-111","1 48904U 21059AB  22172.27604069  .00009901  00000-0  50660-3 0  9999","2 48904  97.5586 302.3143 0011728  93.0490 267.2085 15.16773459 54532","2021-059AB","48904","6893.737","94.938","523.687","507.517","1"
"GENERATED VIA SPACETRACK.ORG API","18 SPCS","48904","SPACEBEE-111","PAYLOAD","U","21059AB","2022-06-21 20:52:28","991136","15.16784648","0.0011662","97.5584","302.9062","91.2229","269.034","0","999","5462","0.00047061","0.00009194","0","3499203","0 SPACEBEE-111","1 48904U 21059AB  22172.86977999  .00009194  00000-0  47061-3 0  9994","2 48904  97.5584 302.9062 0011662  91.2229 269.0340 15.16784648 54629","2021-059AB","48904","6893.703","94.938","523.607","507.528","1"
"GENERATED VIA SPACETRACK.ORG API","18 SPCS","48904","SPACEBEE-111","PAYLOAD","U","21059AB","2022-06-22 03:12:28","461600","15.16789836","0.0011642","97.5583","303.1692","90.4214","269.8353","0","999","5466","0.00048615","0.00009502","0","3499359","0 SPACEBEE-111","1 48904U 21059AB  22173.13366275  .00009502  00000-0  48615-3 0  9993","2 48904  97.5583 303.1692 0011642  90.4214 269.8353 15.16789836 54663","2021-059AB","48904","6893.687","94.937","523.578","507.526","1"
"GENERATED VIA SPACETRACK.ORG API","18 SPCS","48904","SPACEBEE-111","PAYLOAD","U","21059AB","2022-06-22 07:57:28","15200","15.16793635","0.0011636","97.5582","303.3664","89.8152","270.4414","0","999","5469","0.00047185","0.00009221","0","3499789","0 SPACEBEE-111","1 48904U 21059AB  22173.33157425  .00009221  00000-0  47185-3 0  9999","2 48904  97.5582 303.3664 0011636  89.8152 270.4414 15.16793635 54690","2021-059AB","48904","6893.676","94.937","523.562","507.519","1"
"GENERATED VIA SPACETRACK.ORG API","18 SPCS","48904","SPACEBEE-111","PAYLOAD","U","21059AB","2022-06-22 14:17:27","356928","15.1679815","0.0011605","97.5582","303.6295","88.9323","271.3239","0","999","5473","0.00047792","0.00009342","0","3500001","0 SPACEBEE-111","1 48904U 21059AB  22173.59545552  .00009342  00000-0  47792-3 0  9997","2 48904  97.5582 303.6295 0011605  88.9323 271.3239 15.16798150 54736","2021-059AB","48904","6893.662","94.937","523.527","507.527","1"
